SL-16 R/B               
1 22803U 93059B   26073.48817372  .00000062  00000+0  54454-4 0  9992
2 22803  70.9930   1.0079 0018244 209.4656 150.5441 14.17231554680213
ARIANE 40 R/B           
1 22830U 93061H   26073.58670435  .00000236  00000+0  10233-3 0  9992
2 22830  98.4907 142.3775 0009573 268.9707  91.0380 14.32863867694802
COSMOS 2278             
1 23087U 94023A   26073.61908443 -.00000061  00000+0 -69938-5 0  9999
2 23087  71.0550 164.7856 0008397   4.3126 355.8067 14.14379645645508
SL-16 R/B               
1 23088U 94023B   26073.38057291 -.00000171  00000+0 -63894-4 0  9996
2 23088  70.9984  61.0340 0005647 280.9015  79.1472 14.15010387646759
SL-16 R/B               
1 23343U 94074B   26073.60544352  .00000579  00000+0  84208-4 0  9992
2 23343  97.7103 104.2242 0006127 192.9367 280.8374 14.79414592687977
SL-16 R/B               
1 23405U 94077B   26073.50170747  .00000216  00000+0  13489-3 0  9996
2 23405  70.9853 342.3667 0002814 205.9420 154.1562 14.15562523616917
ARIANE 40+ R/B          
1 23561U 95021B   26073.63108596  .00000338  00000+0  12174-3 0  9991
2 23561  98.4488 145.0466 0007823 123.4593  36.5174 14.39776537619951
SL-16 R/B               
1 23705U 95058B   26073.57959930  .00000261  00000+0  15758-3 0  9996
2 23705  71.0224 169.9895 0010585 116.9191 243.3015 14.15498633568549
SL-16 R/B               
1 24298U 96051B   26073.55691580  .00000076  00000+0  67525-4 0  9994
2 24298  70.7602 164.9375 0014671 140.5300 219.6891 14.12417012522330
ORBVIEW 2 (SEASTAR)     
1 24883U 97037A   26073.43643246  .00000329  00000+0  13066-3 0  9993
2 24883  98.8575 237.8742 0002964  62.2227 297.9258 14.35498768509151
SL-16 R/B               
1 25400U 98043G   26073.57286613  .00000069  00000+0  47791-4 0  9997
2 25400  98.8261  26.9710 0009973   6.7938 353.3375 14.26050978439684
SL-16 R/B               
1 25407U 98045B   26073.58812647  .00000304  00000+0  17759-3 0  9991
2 25407  71.0121 171.2737 0007070   0.4072 359.7056 14.16192835427791
ISS (ZARYA)             
1 25544U 98067A   26073.41792243  .00009990  00000+0  19399-3 0  9990
2 25544  51.6328  48.9797 0006389 189.6380 170.4486 15.48274195557061
CZ-4B R/B               
1 25732U 99025C   26073.62481764  .00000078  00000+0  58478-4 0  9990
2 25732  98.6617 117.7893 0036488 332.2845 195.9348 14.18266455388864
OKEAN-O                 
1 25860U 99039A   26073.58627559  .00000846  00000+0  11783-3 0  9996
2 25860  97.9431 133.4277 0001103  71.5489 288.5843 14.80344785435118
SL-16 R/B               
1 25861U 99039B   26073.15635356  .00000650  00000+0  89187-4 0  9991
2 25861  97.9957 132.2464 0013642 240.1784 119.8073 14.81738421437523
DELTA 2 R/B             
1 25876U 99041E   26073.60959667  .00001428  00000+0  26804-3 0  9994
2 25876  51.7619 281.6284 0502492   2.9438 357.4267 14.11854461363728
