[{"OBJECT_NAME":"SL-16 R/B","OBJECT_ID":"1993-059B","EPOCH":"2026-03-14T11:42:58.209408","MEAN_MOTION":14.17231554,"ECCENTRICITY":0.00182448,"INCLINATION":70.993,"RA_OF_ASC_NODE":1.0079,"ARG_OF_PERICENTER":209.4656,"MEAN_ANOMALY":150.5441,"EPHEMERIS_TYPE":0,"CLASSIFICATION_TYPE":"U","NORAD_CAT_ID":22803,"ELEMENT_SET_NO":999,"REV_AT_EPOCH":68021,"BSTAR":5.4454057e-5,"MEAN_MOTION_DOT":6.2e-7,"MEAN_MOTION_DDOT":0},{"OBJECT_NAME":"ARIANE 40 R/B","OBJECT_ID":"1993-061H","EPOCH":"2026-03-14T14:04:51.255840","MEAN_MOTION":14.32863867,"ECCENTRICITY":0.00095731,"INCLINATION":98.4907,"RA_OF_ASC_NODE":142.3775,"ARG_OF_PERICENTER":268.9707,"MEAN_ANOMALY":91.038,"EPHEMERIS_TYPE":0,"CLASSIFICATION_TYPE":"U","NORAD_CAT_ID":22830,"ELEMENT_SET_NO":999,"REV_AT_EPOCH":69480,"BSTAR":0.00010232945,"MEAN_MOTION_DOT":2.36e-6,"MEAN_MOTION_DDOT":0},{"OBJECT_NAME":"COSMOS 2278","OBJECT_ID":"1994-023A","EPOCH":"2026-03-14T14:51:28.894752","MEAN_MOTION":14.14379645,"ECCENTRICITY":0.00083972,"INCLINATION":71.055,"RA_OF_ASC_NODE":164.7856,"ARG_OF_PERICENTER":4.3126,"MEAN_ANOMALY":355.8067,"EPHEMERIS_TYPE":0,"CLASSIFICATION_TYPE":"U","NORAD_CAT_ID":23087,"ELEMENT_SET_NO":999,"REV_AT_EPOCH":64550,"BSTAR":-6.993838e-6,"MEAN_MOTION_DOT":-6.1e-7,"MEAN_MOTION_DDOT":0},{"OBJECT_NAME":"SL-16 R/B","OBJECT_ID":"1994-023B","EPOCH":"2026-03-14T09:08:01.499424","MEAN_MOTION":14.15010387,"ECCENTRICITY":0.00056475,"INCLINATION":70.9984,"RA_OF_ASC_NODE":61.034,"ARG_OF_PERICENTER":280.9015,"MEAN_ANOMALY":79.1472,"EPHEMERIS_TYPE":0,"CLASSIFICATION_TYPE":"U","NORAD_CAT_ID":23088,"ELEMENT_SET_NO":999,"REV_AT_EPOCH":64675,"BSTAR":-6.3893627e-5,"MEAN_MOTION_DOT":-1.71e-6,"MEAN_MOTION_DDOT":0},{"OBJECT_NAME":"SL-16 R/B","OBJECT_ID":"1994-074B","EPOCH":"2026-03-14T14:31:50.320128","MEAN_MOTION":14.79414592,"ECCENTRICITY":0.00061274,"INCLINATION":97.7103,"RA_OF_ASC_NODE":104.2242,"ARG_OF_PERICENTER":192.9367,"MEAN_ANOMALY":280.8374,"EPHEMERIS_TYPE":0,"CLASSIFICATION_TYPE":"U","NORAD_CAT_ID":23343,"ELEMENT_SET_NO":999,"REV_AT_EPOCH":68797,"BSTAR":8.4208259e-5,"MEAN_MOTION_DOT":5.79e-6,"MEAN_MOTION_DDOT":0},{"OBJECT_NAME":"SL-16 R/B","OBJECT_ID":"1994-077B","EPOCH":"2026-03-14T12:02:27.525408","MEAN_MOTION":14.15562523,"ECCENTRICITY":0.00028148,"INCLINATION":70.9853,"RA_OF_ASC_NODE":342.3667,"ARG_OF_PERICENTER":205.942,"MEAN_ANOMALY":154.1562,"EPHEMERIS_TYPE":0,"CLASSIFICATION_TYPE":"U","NORAD_CAT_ID":23405,"ELEMENT_SET_NO":999,"REV_AT_EPOCH":61691,"BSTAR":0.00013488654,"MEAN_MOTION_DOT":2.16e-6,"MEAN_MOTION_DDOT":0},{"OBJECT_NAME":"ARIANE 40+ R/B","OBJECT_ID":"1995-021B","EPOCH":"2026-03-14T15:08:45.826944","MEAN_MOTION":14.39776537,"ECCENTRICITY":0.00078232,"INCLINATION":98.4488,"RA_OF_ASC_NODE":145.0466,"ARG_OF_PERICENTER":123.4593,"MEAN_ANOMALY":36.5174,"EPHEMERIS_TYPE":0,"CLASSIFICATION_TYPE":"U","NORAD_CAT_ID":23561,"ELEMENT_SET_NO":999,"REV_AT_EPOCH":61995,"BSTAR":0.00012174389,"MEAN_MOTION_DOT":3.38e-6,"MEAN_MOTION_DDOT":0},{"OBJECT_NAME":"SL-16 R/B","OBJECT_ID":"1995-058B","EPOCH":"2026-03-14T13:54:37.379520","MEAN_MOTION":14.15498633,"ECCENTRICITY":0.00105858,"INCLINATION":71.0224,"RA_OF_ASC_NODE":169.9895,"ARG_OF_PERICENTER":116.9191,"MEAN_ANOMALY":243.3015,"EPHEMERIS_TYPE":0,"CLASSIFICATION_TYPE":"U","NORAD_CAT_ID":23705,"ELEMENT_SET_NO":999,"REV_AT_EPOCH":56854,"BSTAR":0.00015758215,"MEAN_MOTION_DOT":2.61e-6,"MEAN_MOTION_DDOT":0},{"OBJECT_NAME":"SL-16 R/B","OBJECT_ID":"1996-051B","EPOCH":"2026-03-14T13:21:57.525120","MEAN_MOTION":14.12417012,"ECCENTRICITY":0.00146713,"INCLINATION":70.7602,"RA_OF_ASC_NODE":164.9375,"ARG_OF_PERICENTER":140.53,"MEAN_ANOMALY":219.6891,"EPHEMERIS_TYPE":0,"CLASSIFICATION_TYPE":"U","NORAD_CAT_ID":24298,"ELEMENT_SET_NO":999,"REV_AT_EPOCH":52233,"BSTAR":6.7524672e-5,"MEAN_MOTION_DOT":7.6e-7,"MEAN_MOTION_DDOT":0},{"OBJECT_NAME":"ORBVIEW 2 (SEASTAR)","OBJECT_ID":"1997-037A","EPOCH":"2026-03-14T10:28:27.764544","MEAN_MOTION":14.35498768,"ECCENTRICITY":0.00029649,"INCLINATION":98.8575,"RA_OF_ASC_NODE":237.8742,"ARG_OF_PERICENTER":62.2227,"MEAN_ANOMALY":297.9258,"EPHEMERIS_TYPE":0,"CLASSIFICATION_TYPE":"U","NORAD_CAT_ID":24883,"ELEMENT_SET_NO":999,"REV_AT_EPOCH":50915,"BSTAR":0.0001306582,"MEAN_MOTION_DOT":3.29e-6,"MEAN_MOTION_DDOT":0},{"OBJECT_NAME":"SL-16 R/B","OBJECT_ID":"1998-043G","EPOCH":"2026-03-14T13:44:55.633632","MEAN_MOTION":14.26050978,"ECCENTRICITY":0.0009973,"INCLINATION":98.8261,"RA_OF_ASC_NODE":26.971,"ARG_OF_PERICENTER":6.7938,"MEAN_ANOMALY":353.3375,"EPHEMERIS_TYPE":0,"CLASSIFICATION_TYPE":"U","NORAD_CAT_ID":25400,"ELEMENT_SET_NO":999,"REV_AT_EPOCH":43968,"BSTAR":4.7791117e-5,"MEAN_MOTION_DOT":6.9e-7,"MEAN_MOTION_DDOT":0},{"OBJECT_NAME":"SL-16 R/B","OBJECT_ID":"1998-045B","EPOCH":"2026-03-14T14:06:54.127008","MEAN_MOTION":14.16192835,"ECCENTRICITY":0.00070701,"INCLINATION":71.0121,"RA_OF_ASC_NODE":171.2737,"ARG_OF_PERICENTER":0.4072,"MEAN_ANOMALY":359.7056,"EPHEMERIS_TYPE":0,"CLASSIFICATION_TYPE":"U","NORAD_CAT_ID":25407,"ELEMENT_SET_NO":999,"REV_AT_EPOCH":42779,"BSTAR":0.00017759094,"MEAN_MOTION_DOT":3.04e-6,"MEAN_MOTION_DDOT":0},{"OBJECT_NAME":"ISS (ZARYA)","OBJECT_ID":"1998-067A","EPOCH":"2026-03-14T10:01:48.497952","MEAN_MOTION":15.48274195,"ECCENTRICITY":0.00063896,"INCLINATION":51.6328,"RA_OF_ASC_NODE":48.9797,"ARG_OF_PERICENTER":189.638,"MEAN_ANOMALY":170.4486,"EPHEMERIS_TYPE":0,"CLASSIFICATION_TYPE":"U","NORAD_CAT_ID":25544,"ELEMENT_SET_NO":999,"REV_AT_EPOCH":55706,"BSTAR":0.00019399232,"MEAN_MOTION_DOT":9.99e-5,"MEAN_MOTION_DDOT":0},{"OBJECT_NAME":"CZ-4B R/B","OBJECT_ID":"1999-025C","EPOCH":"2026-03-14T14:59:44.244096","MEAN_MOTION":14.18266455,"ECCENTRICITY":0.00364884,"INCLINATION":98.6617,"RA_OF_ASC_NODE":117.7893,"ARG_OF_PERICENTER":332.2845,"MEAN_ANOMALY":195.9348,"EPHEMERIS_TYPE":0,"CLASSIFICATION_TYPE":"U","NORAD_CAT_ID":25732,"ELEMENT_SET_NO":999,"REV_AT_EPOCH":38886,"BSTAR":5.8477718e-5,"MEAN_MOTION_DOT":7.8e-7,"MEAN_MOTION_DDOT":0},{"OBJECT_NAME":"OKEAN-O","OBJECT_ID":"1999-039A","EPOCH":"2026-03-14T14:04:14.210976","MEAN_MOTION":14.80344785,"ECCENTRICITY":0.00011033,"INCLINATION":97.9431,"RA_OF_ASC_NODE":133.4277,"ARG_OF_PERICENTER":71.5489,"MEAN_ANOMALY":288.5843,"EPHEMERIS_TYPE":0,"CLASSIFICATION_TYPE":"U","NORAD_CAT_ID":25860,"ELEMENT_SET_NO":999,"REV_AT_EPOCH":43511,"BSTAR":0.00011782835,"MEAN_MOTION_DOT":8.46e-6,"MEAN_MOTION_DDOT":0},{"OBJECT_NAME":"SL-16 R/B","OBJECT_ID":"1999-039B","EPOCH":"2026-03-14T03:45:08.947584","MEAN_MOTION":14.81738421,"ECCENTRICITY":0.00136429,"INCLINATION":97.9957,"RA_OF_ASC_NODE":132.2464,"ARG_OF_PERICENTER":240.1784,"MEAN_ANOMALY":119.8073,"EPHEMERIS_TYPE":0,"CLASSIFICATION_TYPE":"U","NORAD_CAT_ID":25861,"ELEMENT_SET_NO":999,"REV_AT_EPOCH":43752,"BSTAR":8.9186619e-5,"MEAN_MOTION_DOT":6.5e-6,"MEAN_MOTION_DDOT":0},{"OBJECT_NAME":"DELTA 2 R/B","OBJECT_ID":"1999-041E","EPOCH":"2026-03-14T14:37:49.152288","MEAN_MOTION":14.11854461,"ECCENTRICITY":0.05024924,"INCLINATION":51.7619,"RA_OF_ASC_NODE":281.6284,"ARG_OF_PERICENTER":2.9438,"MEAN_ANOMALY":357.4267,"EPHEMERIS_TYPE":0,"CLASSIFICATION_TYPE":"U","NORAD_CAT_ID":25876,"ELEMENT_SET_NO":999,"REV_AT_EPOCH":36372,"BSTAR":0.00026804184,"MEAN_MOTION_DOT":1.428e-5,"MEAN_MOTION_DDOT":0}]
